     2              NAVIGATION DATA                         RINEX VERSION / TYPE
CCRINEXN V1.6.0 UX  CDDIS               12-SEP-12 15:33     PGM / RUN BY / DATE 
IGS BROADCAST EPHEMERIS FILE                                COMMENT             
    0.1490D-07  0.2235D-07 -0.1192D-06 -0.1192D-06          ION ALPHA           
    0.1085D+06  0.6554D+05 -0.1966D+06 -0.1311D+06          ION BETA            
    0.465661287308D-08 0.976996261670D-14   319488      681 DELTA-UTC: A0,A1,T,W
    16                                                      LEAP SECONDS        
                                                            END OF HEADER       
28 12  9 11 22  0  0.0 0.184465199709D-03 0.375166564481D-11 0.000000000000D+00
    0.440000000000D+02-0.255625000000D+02 0.436303881912D-08-0.406642275334D+00
   -0.125914812088D-05 0.180418698583D-01 0.377371907234D-05 0.515363122749D+04
    0.252000000000D+06-0.173225998878D-06 0.112929454959D+01 0.169500708580D-06
    0.980010595821D+00 0.321718750000D+03-0.182056853890D+01-0.851071124686D-08
    0.950039560910D-10 0.100000000000D+01 0.170500000000D+04 0.000000000000D+00
    0.200000000000D+01 0.000000000000D+00-0.107102096081D-07 0.440000000000D+02
    0.252000000000D+06 0.000000000000D+00 0.499063314959-269 0.664593648549-315
29 12  9 11 22  0  0.0 0.354469288141D-03 0.409272615798D-11 0.000000000000D+00
    0.300000000000D+02-0.874062500000D+02 0.439911181209D-08 0.174238298017D+01
   -0.450201332569D-05 0.186145119369D-02 0.102724879980D-04 0.515379414177D+04
    0.252000000000D+06 0.540167093277D-07 0.217122859810D+01 0.167638063431D-07
    0.964167204726D+00 0.187156250000D+03-0.105411298342D+01-0.790961518151D-08
    0.214294640518D-10 0.100000000000D+01 0.170500000000D+04 0.000000000000D+00
    0.200000000000D+01 0.000000000000D+00-0.977888703346D-08 0.300000000000D+02
    0.244818000000D+06 0.400000000000D+01 0.000000000000D+00 0.000000000000D+00
30 12  9 11 22  0  0.0-0.417897012085D-03 0.181898940355D-10 0.000000000000D+00
    0.800000000000D+01-0.750000000000D+01 0.475984112363D-08-0.118061698105D+01
   -0.968575477600D-07 0.111813318217D-01 0.286661088467D-05 0.515370772743D+04
    0.252000000000D+06-0.150874257088D-06 0.977259658833D+00 0.208616256714D-06
    0.960942446127D+00 0.326218750000D+03 0.160471481977D+01-0.859035782288D-08
    0.121076471893D-09 0.000000000000D+00 0.170500000000D+04 0.000000000000D+00
    0.800000000000D+01 0.630000000000D+02-0.419095158577D-08 0.800000000000D+01
    0.244800000000D+06 0.400000000000D+01 0.000000000000D+00 0.000000000000D+00
31 12  9 11 22  0  0.0 0.273770187050D-03 0.250111042988D-11 0.000000000000D+00
    0.870000000000D+02 0.889687500000D+02 0.383873132714D-08 0.242045771650D+01
    0.474788248539D-05 0.781264831312D-02 0.767968595028D-05 0.515372616005D+04
    0.252000000000D+06 0.521540641785D-07 0.511163794424D-01 0.186264514923D-07
    0.981204821199D+00 0.240062500000D+03-0.859334821396D+00-0.776889503423D-08
    0.206794328100D-09 0.000000000000D+00 0.170500000000D+04 0.000000000000D+00
    0.200000000000D+01 0.000000000000D+00-0.135041773319D-07 0.870000000000D+02
    0.244800000000D+06 0.400000000000D+01 0.000000000000D+00 0.000000000000D+00
32 12  9 11 22  0  0.0-0.486867967993D-03-0.409272615798D-11 0.000000000000D+00
    0.510000000000D+02-0.103125000000D+01 0.504163857591D-08 0.300869648662D+01
   -0.447034835815D-07 0.118285695789D-01 0.553391873836D-05 0.515357695007D+04
    0.252000000000D+06-0.113621354103D-06-0.197623967786D+01 0.165775418282D-06
    0.950621976010D+00 0.266875000000D+03-0.523313551436D+00-0.817105464294D-08
   -0.254296306748D-09 0.000000000000D+00 0.170500000000D+04 0.000000000000D+00
    0.200000000000D+01 0.000000000000D+00-0.325962901115D-08 0.510000000000D+02
    0.246330000000D+06 0.400000000000D+01 0.000000000000D+00 0.000000000000D+00
